IRIDIUM 72 [+]          
1 25343U 98032B   18114.08302759 -.00000006  00000-0 -90348-5 0  9995
2 25343  86.3927  93.9464 0002288  83.1605 276.9851 14.34214704 43669
IRIDIUM 73 [-]          
1 25344U 98032C   18114.36862789  .00000145  00000-0  32667-4 0  9992
2 25344  86.4422  71.4437 0002897  91.3531 268.8005 14.49109440 52619
IRIDIUM 75 [+]          
1 25346U 98032E   18114.29868933 -.00000016  00000-0 -12606-4 0  9993
2 25346  86.3930  94.1198 0002261  84.1184 276.0269 14.34213323 44264
IRIDIUM 76 [P]          
1 25432U 98048B   18114.08884162 -.00000003  00000-0 -75217-5 0  9999
2 25432  86.4225 125.5812 0002694  89.5656 270.5851 14.38601079 30177
IRIDIUM 82 [-]          
1 25467U 98051A   18114.37750722  .00000621  00000-0  44376-4 0  9992
2 25467  86.4029 238.4898 0181515   2.5713 357.6401 14.89845144 33163
IRIDIUM 81 [+]          
1 25468U 98051B   18114.43679098  .00000131  00000-0  36231-4 0  9993
2 25468  86.4234 251.6999 0002218 100.8257 259.3191 14.38608012 27597
IRIDIUM 80 [+]          
1 25469U 98051C   18114.48739919  .00000112  00000-0  32785-4 0  9997
2 25469  86.3962 251.9217 0001935  79.5459 347.2870 14.34213764 27450
IRIDIUM 2 [-]           
1 25527U 98066A   18114.21847311  .00001035  00000-0  49956-4 0  9998
2 25527  85.5342 208.5332 0010183  40.0512 320.1477 15.17335696 65021
IRIDIUM 86 [+]          
1 25528U 98066B   18114.35059901  .00000154  00000-0  47765-4 0  9991
2 25528  86.4001 219.6719 0002897  81.3670 278.7854 14.34218443 23964
IRIDIUM 84 [+]          
1 25530U 98066D   18114.31252466  .00000169  00000-0  53183-4 0  9998
2 25530  86.4002 219.8576 0002285  99.0814 261.0640 14.34217205 21598
IRIDIUM 83 [+]          
1 25531U 98066E   18114.41407878  .00000157  00000-0  49061-4 0  9996
2 25531  86.4005 219.9535 0002207  97.7719 262.3728 14.34215510 18966
IRIDIUM 20 [P]          
1 25577U 98074A   18114.06990363 -.00000016  00000-0 -11889-4 0  9995
2 25577  86.4189 125.4850 0002647 103.5812 256.5681 14.38607010 12992
IRIDIUM 11 [+]          
1 25578U 98074B   18112.56724863  .00000016  00000-0 -12010-5 0  9996
2 25578  86.3932 126.3313 0002323 107.0984   5.5149 14.34215992 21746
IRIDIUM 14 [+]          
1 25777U 99032A   18114.31771084 -.00000014  00000-0 -11958-4 0  9992
2 25777  86.3930  93.9385 0002354  82.6007 277.5456 14.34214369999272
IRIDIUM 21 [+]          
1 25778U 99032B   18114.00691993 -.00000002  00000-0 -76868-5 0  9998
2 25778  86.3928  94.0832 0002188  86.9453 273.1993 14.34214728992669
IRIDIUM 91 [+]          
1 27372U 02005A   18114.39441508  .00000096  00000-0  27381-4 0  9997
2 27372  86.3974 157.1450 0002805  95.6558 264.4957 14.34221903856236
IRIDIUM 90 [B]          
1 27373U 02005B   18114.44625883  .00116005  16585-5  66571-3 0  9995
2 27373  86.4375 217.1053 0328310 184.0487 175.8103 15.30229553856611
IRIDIUM 94 [P]          
1 27374U 02005C   18108.24475940  .58469441 -85873-7  19282-4 0  9999
2 27374  86.2998 124.3001 0093641 344.5221  17.2855 16.61324468860162
IRIDIUM 95 [+]          
1 27375U 02005D   18114.15340033  .00000075  00000-0  19750-4 0  9993
2 27375  86.3970 157.2559 0002747 109.4611 250.6882 14.34220793855481
IRIDIUM 96 [P]          
1 27376U 02005E   18114.18907374  .00035866 -10897-5  37229-3 0  9991
2 27376  86.3837 181.4450 0300890  59.1827 303.8659 15.24546951861749
IRIDIUM 97 [+]          
1 27450U 02031A   18114.25320885  .00000132  00000-0  36616-4 0  9994
2 27450  86.4280 188.9078 0002263  99.4581 260.6873 14.38605112834837
IRIDIUM 98 [+]          
1 27451U 02031B   18114.48082937  .00000102  00000-0  29530-4 0  9997
2 27451  86.3955 251.9995 0002424  86.4453 273.7020 14.34213285835920
